ONEWEB-0215             
1 48800U 21045AK  26034.24363313  .00000101  00000+0  23548-3 0  9998
2 48800  87.8998 285.9117 0000894  91.6779 268.4454 13.15549350226687
ONEWEB-0216             
1 48801U 21045AL  26034.25313734 -.00000040  00000+0 -14048-3 0  9991
2 48801  87.8992 285.9335 0001477  75.4385 284.6910 13.15548948226695
ONEWEB-0239             
1 48802U 21045AM  26034.18183253 -.00000018  00000+0 -81832-4 0  9996
2 48802  87.8987 285.9618 0000912 106.7557 253.3674 13.15549526226723
ONEWEB-0249             
1 48967U 21060A   26034.14551683  .00000131  00000+0  30901-3 0  9991
2 48967  87.9008 255.4614 0001419  91.3408 268.7886 13.16594161221978
ONEWEB-0250             
1 48968U 21060B   26034.12543310 -.00000048  00000+0 -13952-3 0  9994
2 48968  87.9006 253.6589 0002121 114.7132 245.4225 13.25825945222453
ONEWEB-0252             
1 48970U 21060D   26034.10111966 -.00000017  00000+0 -77556-4 0  9990
2 48970  87.9010 255.4630 0001427  75.4436 284.6853 13.16595129222018
ONEWEB-0253             
1 48971U 21060E   26034.16603867  .00000042  00000+0  76793-4 0  9991
2 48971  87.9011 255.4557 0001328  87.3235 272.8048 13.16594487221950
ONEWEB-0254             
1 48972U 21060F   26034.09953635  .00000074  00000+0  15971-3 0  9990
2 48972  87.9014 255.4624 0001287  96.4755 263.6523 13.16594338221941
ONEWEB-0255             
1 48973U 21060G   26034.06154347  .00000182  00000+0  44176-3 0  9990
2 48973  87.9003 255.4818 0001321  92.7924 267.3358 13.16594177222018
ONEWEB-0256             
1 48974U 21060H   26034.16365983 -.00000016  00000+0 -76433-4 0  9992
2 48974  87.8999 255.4670 0001541  80.8219 279.3087 13.16595327221993
ONEWEB-0257             
1 48975U 21060J   26034.12012046  .00000205  00000+0  50280-3 0  9997
2 48975  87.9011 255.4596 0001353  86.3392 273.7893 13.16593139221948
ONEWEB-0258             
1 48976U 21060K   26034.12170705  .00000175  00000+0  42531-3 0  9991
2 48976  87.9003 255.4718 0001573  89.4324 270.6987 13.16593584221954
ONEWEB-0259             
1 48977U 21060L   26034.11537160  .00000100  00000+0  22699-3 0  9994
2 48977  87.9010 255.4707 0001400  91.4452 268.6839 13.16593874221983
ONEWEB-0260             
1 48978U 21060M   26034.10666209 -.00000033  00000+0 -11975-3 0  9993
2 48978  87.8999 255.4804 0001534  70.4245 289.7051 13.16594518221966
ONEWEB-0261             
1 48979U 21060N   26034.30457330  .00000087  00000+0  19486-3 0  9991
2 48979  87.9000 255.4427 0001093  85.2663 274.8593 13.16594712222042
ONEWEB-0262             
1 48980U 21060P   26034.13278991  .00000102  00000+0  23392-3 0  9997
2 48980  87.9007 255.4556 0001477  98.0842 262.0456 13.16594606221982
ONEWEB-0263             
1 48981U 21060Q   26034.16444727  .00000014  00000+0  35400-5 0  9990
2 48981  87.9013 255.4609 0001135  91.5998 268.5263 13.16594161221950
