[{"OBJECT_NAME":"ONEWEB-0215","OBJECT_ID":"2021-045AK","EPOCH":"2026-02-03T05:50:49.902432","MEAN_MOTION":13.1554935,"ECCENTRICITY":8.949e-5,"INCLINATION":87.8998,"RA_OF_ASC_NODE":285.9117,"ARG_OF_PERICENTER":91.6779,"MEAN_ANOMALY":268.4454,"EPHEMERIS_TYPE":0,"CLASSIFICATION_TYPE":"U","NORAD_CAT_ID":48800,"ELEMENT_SET_NO":999,"REV_AT_EPOCH":22668,"BSTAR":0.00023547881,"MEAN_MOTION_DOT":1.01e-6,"MEAN_MOTION_DDOT":0},{"OBJECT_NAME":"ONEWEB-0216","OBJECT_ID":"2021-045AL","EPOCH":"2026-02-03T06:04:31.066176","MEAN_MOTION":13.15548948,"ECCENTRICITY":0.00014777,"INCLINATION":87.8992,"RA_OF_ASC_NODE":285.9335,"ARG_OF_PERICENTER":75.4385,"MEAN_ANOMALY":284.691,"EPHEMERIS_TYPE":0,"CLASSIFICATION_TYPE":"U","NORAD_CAT_ID":48801,"ELEMENT_SET_NO":999,"REV_AT_EPOCH":22669,"BSTAR":-0.00014048178,"MEAN_MOTION_DOT":-4.0e-7,"MEAN_MOTION_DDOT":0},{"OBJECT_NAME":"ONEWEB-0239","OBJECT_ID":"2021-045AM","EPOCH":"2026-02-03T04:21:50.330592","MEAN_MOTION":13.15549526,"ECCENTRICITY":9.127e-5,"INCLINATION":87.8987,"RA_OF_ASC_NODE":285.9618,"ARG_OF_PERICENTER":106.7557,"MEAN_ANOMALY":253.3674,"EPHEMERIS_TYPE":0,"CLASSIFICATION_TYPE":"U","NORAD_CAT_ID":48802,"ELEMENT_SET_NO":999,"REV_AT_EPOCH":22672,"BSTAR":-8.1832353e-5,"MEAN_MOTION_DOT":-1.8e-7,"MEAN_MOTION_DDOT":0},{"OBJECT_NAME":"ONEWEB-0249","OBJECT_ID":"2021-060A","EPOCH":"2026-02-03T03:29:32.654112","MEAN_MOTION":13.16594161,"ECCENTRICITY":0.00014194,"INCLINATION":87.9008,"RA_OF_ASC_NODE":255.4614,"ARG_OF_PERICENTER":91.3408,"MEAN_ANOMALY":268.7886,"EPHEMERIS_TYPE":0,"CLASSIFICATION_TYPE":"U","NORAD_CAT_ID":48967,"ELEMENT_SET_NO":999,"REV_AT_EPOCH":22197,"BSTAR":0.00030900924,"MEAN_MOTION_DOT":1.31e-6,"MEAN_MOTION_DDOT":0},{"OBJECT_NAME":"ONEWEB-0250","OBJECT_ID":"2021-060B","EPOCH":"2026-02-03T03:00:37.419840","MEAN_MOTION":13.25825945,"ECCENTRICITY":0.00021212,"INCLINATION":87.9006,"RA_OF_ASC_NODE":253.6589,"ARG_OF_PERICENTER":114.7132,"MEAN_ANOMALY":245.4225,"EPHEMERIS_TYPE":0,"CLASSIFICATION_TYPE":"U","NORAD_CAT_ID":48968,"ELEMENT_SET_NO":999,"REV_AT_EPOCH":22245,"BSTAR":-0.00013951933,"MEAN_MOTION_DOT":-4.8e-7,"MEAN_MOTION_DDOT":0},{"OBJECT_NAME":"ONEWEB-0252","OBJECT_ID":"2021-060D","EPOCH":"2026-02-03T02:25:36.738624","MEAN_MOTION":13.16595129,"ECCENTRICITY":0.00014273,"INCLINATION":87.901,"RA_OF_ASC_NODE":255.463,"ARG_OF_PERICENTER":75.4436,"MEAN_ANOMALY":284.6853,"EPHEMERIS_TYPE":0,"CLASSIFICATION_TYPE":"U","NORAD_CAT_ID":48970,"ELEMENT_SET_NO":999,"REV_AT_EPOCH":22201,"BSTAR":-7.7555651e-5,"MEAN_MOTION_DOT":-1.7e-7,"MEAN_MOTION_DDOT":0},{"OBJECT_NAME":"ONEWEB-0253","OBJECT_ID":"2021-060E","EPOCH":"2026-02-03T03:59:05.741088","MEAN_MOTION":13.16594487,"ECCENTRICITY":0.00013281,"INCLINATION":87.9011,"RA_OF_ASC_NODE":255.4557,"ARG_OF_PERICENTER":87.3235,"MEAN_ANOMALY":272.8048,"EPHEMERIS_TYPE":0,"CLASSIFICATION_TYPE":"U","NORAD_CAT_ID":48971,"ELEMENT_SET_NO":999,"REV_AT_EPOCH":22195,"BSTAR":7.6793333e-5,"MEAN_MOTION_DOT":4.2e-7,"MEAN_MOTION_DDOT":0},{"OBJECT_NAME":"ONEWEB-0254","OBJECT_ID":"2021-060F","EPOCH":"2026-02-03T02:23:19.940640","MEAN_MOTION":13.16594338,"ECCENTRICITY":0.00012878,"INCLINATION":87.9014,"RA_OF_ASC_NODE":255.4624,"ARG_OF_PERICENTER":96.4755,"MEAN_ANOMALY":263.6523,"EPHEMERIS_TYPE":0,"CLASSIFICATION_TYPE":"U","NORAD_CAT_ID":48972,"ELEMENT_SET_NO":999,"REV_AT_EPOCH":22194,"BSTAR":0.00015971372,"MEAN_MOTION_DOT":7.4e-7,"MEAN_MOTION_DDOT":0},{"OBJECT_NAME":"ONEWEB-0255","OBJECT_ID":"2021-060G","EPOCH":"2026-02-03T01:28:37.355808","MEAN_MOTION":13.16594177,"ECCENTRICITY":0.00013211,"INCLINATION":87.9003,"RA_OF_ASC_NODE":255.4818,"ARG_OF_PERICENTER":92.7924,"MEAN_ANOMALY":267.3358,"EPHEMERIS_TYPE":0,"CLASSIFICATION_TYPE":"U","NORAD_CAT_ID":48973,"ELEMENT_SET_NO":999,"REV_AT_EPOCH":22201,"BSTAR":0.00044176307,"MEAN_MOTION_DOT":1.82e-6,"MEAN_MOTION_DDOT":0},{"OBJECT_NAME":"ONEWEB-0256","OBJECT_ID":"2021-060H","EPOCH":"2026-02-03T03:55:40.209312","MEAN_MOTION":13.16595327,"ECCENTRICITY":0.0001541,"INCLINATION":87.8999,"RA_OF_ASC_NODE":255.467,"ARG_OF_PERICENTER":80.8219,"MEAN_ANOMALY":279.3087,"EPHEMERIS_TYPE":0,"CLASSIFICATION_TYPE":"U","NORAD_CAT_ID":48974,"ELEMENT_SET_NO":999,"REV_AT_EPOCH":22199,"BSTAR":-7.6432584e-5,"MEAN_MOTION_DOT":-1.6e-7,"MEAN_MOTION_DDOT":0},{"OBJECT_NAME":"ONEWEB-0257","OBJECT_ID":"2021-060J","EPOCH":"2026-02-03T02:52:58.407744","MEAN_MOTION":13.16593139,"ECCENTRICITY":0.00013531,"INCLINATION":87.9011,"RA_OF_ASC_NODE":255.4596,"ARG_OF_PERICENTER":86.3392,"MEAN_ANOMALY":273.7893,"EPHEMERIS_TYPE":0,"CLASSIFICATION_TYPE":"U","NORAD_CAT_ID":48975,"ELEMENT_SET_NO":999,"REV_AT_EPOCH":22194,"BSTAR":0.00050280126,"MEAN_MOTION_DOT":2.05e-6,"MEAN_MOTION_DDOT":0},{"OBJECT_NAME":"ONEWEB-0258","OBJECT_ID":"2021-060K","EPOCH":"2026-02-03T02:55:15.489120","MEAN_MOTION":13.16593584,"ECCENTRICITY":0.00015731,"INCLINATION":87.9003,"RA_OF_ASC_NODE":255.4718,"ARG_OF_PERICENTER":89.4324,"MEAN_ANOMALY":270.6987,"EPHEMERIS_TYPE":0,"CLASSIFICATION_TYPE":"U","NORAD_CAT_ID":48976,"ELEMENT_SET_NO":999,"REV_AT_EPOCH":22195,"BSTAR":0.00042530994,"MEAN_MOTION_DOT":1.75e-6,"MEAN_MOTION_DDOT":0},{"OBJECT_NAME":"ONEWEB-0259","OBJECT_ID":"2021-060L","EPOCH":"2026-02-03T02:46:08.106240","MEAN_MOTION":13.16593874,"ECCENTRICITY":0.00014,"INCLINATION":87.901,"RA_OF_ASC_NODE":255.4707,"ARG_OF_PERICENTER":91.4452,"MEAN_ANOMALY":268.6839,"EPHEMERIS_TYPE":0,"CLASSIFICATION_TYPE":"U","NORAD_CAT_ID":48977,"ELEMENT_SET_NO":999,"REV_AT_EPOCH":22198,"BSTAR":0.00022699455,"MEAN_MOTION_DOT":1.0e-6,"MEAN_MOTION_DDOT":0},{"OBJECT_NAME":"ONEWEB-0260","OBJECT_ID":"2021-060M","EPOCH":"2026-02-03T02:33:35.604576","MEAN_MOTION":13.16594518,"ECCENTRICITY":0.00015349,"INCLINATION":87.8999,"RA_OF_ASC_NODE":255.4804,"ARG_OF_PERICENTER":70.4245,"MEAN_ANOMALY":289.7051,"EPHEMERIS_TYPE":0,"CLASSIFICATION_TYPE":"U","NORAD_CAT_ID":48978,"ELEMENT_SET_NO":999,"REV_AT_EPOCH":22196,"BSTAR":-0.00011975427,"MEAN_MOTION_DOT":-3.3e-7,"MEAN_MOTION_DDOT":0},{"OBJECT_NAME":"ONEWEB-0261","OBJECT_ID":"2021-060N","EPOCH":"2026-02-03T07:18:35.133120","MEAN_MOTION":13.16594712,"ECCENTRICITY":0.00010936,"INCLINATION":87.9,"RA_OF_ASC_NODE":255.4427,"ARG_OF_PERICENTER":85.2663,"MEAN_ANOMALY":274.8593,"EPHEMERIS_TYPE":0,"CLASSIFICATION_TYPE":"U","NORAD_CAT_ID":48979,"ELEMENT_SET_NO":999,"REV_AT_EPOCH":22204,"BSTAR":0.0001948646,"MEAN_MOTION_DOT":8.7e-7,"MEAN_MOTION_DDOT":0},{"OBJECT_NAME":"ONEWEB-0262","OBJECT_ID":"2021-060P","EPOCH":"2026-02-03T03:11:13.048224","MEAN_MOTION":13.16594606,"ECCENTRICITY":0.00014779,"INCLINATION":87.9007,"RA_OF_ASC_NODE":255.4556,"ARG_OF_PERICENTER":98.0842,"MEAN_ANOMALY":262.0456,"EPHEMERIS_TYPE":0,"CLASSIFICATION_TYPE":"U","NORAD_CAT_ID":48980,"ELEMENT_SET_NO":999,"REV_AT_EPOCH":22198,"BSTAR":0.00023392153,"MEAN_MOTION_DOT":1.02e-6,"MEAN_MOTION_DDOT":0},{"OBJECT_NAME":"ONEWEB-0263","OBJECT_ID":"2021-060Q","EPOCH":"2026-02-03T03:56:48.244128","MEAN_MOTION":13.16594161,"ECCENTRICITY":0.00011359,"INCLINATION":87.9013,"RA_OF_ASC_NODE":255.4609,"ARG_OF_PERICENTER":91.5998,"MEAN_ANOMALY":268.5263,"EPHEMERIS_TYPE":0,"CLASSIFICATION_TYPE":"U","NORAD_CAT_ID":48981,"ELEMENT_SET_NO":999,"REV_AT_EPOCH":22195,"BSTAR":3.539982e-6,"MEAN_MOTION_DOT":1.4e-7,"MEAN_MOTION_DDOT":0}]
